{
    "links": {
        "self": "http://www.neowsapp.com/rest/v1/neo/3557959?api_key=iIulBulltgU6a56xZRHN4H3l9WmuAYTsLGpBGhQ2"
    },
    "id": "3557959",
    "neo_reference_id": "3557959",
    "name": "(2011 DU9)",
    "designation": "2011 DU9",
    "nasa_jpl_url": "http://ssd.jpl.nasa.gov/sbdb.cgi?sstr=3557959",
    "absolute_magnitude_h": 26.7,
    "estimated_diameter": {
        "kilometers": {
            "estimated_diameter_min": 0.0121494041,
            "estimated_diameter_max": 0.0271668934
        },
        "meters": {
            "estimated_diameter_min": 12.14940408,
            "estimated_diameter_max": 27.1668934089
        },
        "miles": {
            "estimated_diameter_min": 0.0075492874,
            "estimated_diameter_max": 0.0168807197
        },
        "feet": {
            "estimated_diameter_min": 39.8602508817,
            "estimated_diameter_max": 89.1302305717
        }
    },
    "is_potentially_hazardous_asteroid": false,
    "close_approach_data": [
        {
            "close_approach_date": "1930-07-17",
            "close_approach_date_full": "1930-Jul-17 14:15",
            "epoch_date_close_approach": -1245231900000,
            "relative_velocity": {
                "kilometers_per_second": "14.5298820512",
                "kilometers_per_hour": "52307.5753841893",
                "miles_per_hour": "32501.8931602481"
            },
            "miss_distance": {
                "astronomical": "0.0471355919",
                "lunar": "18.3357452491",
                "kilometers": "7051384.149429253",
                "miles": "4381526.9363515714"
            },
            "orbiting_body": "Mars"
        },
        {
            "close_approach_date": "1935-11-20",
            "close_approach_date_full": "1935-Nov-20 08:52",
            "epoch_date_close_approach": -1076598480000,
            "relative_velocity": {
                "kilometers_per_second": "19.3632379324",
                "kilometers_per_hour": "69707.6565567354",
                "miles_per_hour": "43313.6269310448"
            },
            "miss_distance": {
                "astronomical": "0.350764085",
                "lunar": "136.447229065",
                "kilometers": "52473559.98849895",
                "miles": "32605558.23702751"
            },
            "orbiting_body": "Earth"
        },
        {
            "close_approach_date": "2011-02-23",
            "close_approach_date_full": "2011-Feb-23 19:03",
            "epoch_date_close_approach": 1298487780000,
            "relative_velocity": {
                "kilometers_per_second": "8.9204844317",
                "kilometers_per_hour": "32113.7439542552",
                "miles_per_hour": "19954.2316253537"
            },
            "miss_distance": {
                "astronomical": "0.0019219104",
                "lunar": "0.7476231456",
                "kilometers": "287513.702170848",
                "miles": "178652.7302917824"
            },
            "orbiting_body": "Earth"
        },
        {
            "close_approach_date": "2011-02-24",
            "close_approach_date_full": "2011-Feb-24 02:35",
            "epoch_date_close_approach": 1298514900000,
            "relative_velocity": {
                "kilometers_per_second": "9.4711769809",
                "kilometers_per_hour": "34096.2371313065",
                "miles_per_hour": "21186.0757886165"
            },
            "miss_distance": {
                "astronomical": "0.0033239462",
                "lunar": "1.2930150718",
                "kilometers": "497255.271514594",
                "miles": "308980.0981216372"
            },
            "orbiting_body": "Moon"
        }
    ],
    "orbital_data": {
        "orbit_id": "13",
        "orbit_determination_date": "2017-04-06 08:54:20",
        "first_observation_date": "2011-02-27",
        "last_observation_date": "2011-03-11",
        "data_arc_in_days": 12,
        "observations_used": 64,
        "orbit_uncertainty": "7",
        "minimum_orbit_intersection": ".00065029",
        "jupiter_tisserand_invariant": "3.731",
        "epoch_osculation": "2459000.5",
        "eccentricity": ".5140120989056199",
        "semi_major_axis": "1.937390252097838",
        "inclination": "3.413829216577456",
        "ascending_node_longitude": "155.1233397248049",
        "orbital_period": "984.9724703363127",
        "perihelion_distance": ".9415482222177399",
        "perihelion_argument": "328.3031034516089",
        "aphelion_distance": "2.933232281977935",
        "perihelion_time": "2458545.059689762872",
        "mean_anomaly": "166.4599941858104",
        "mean_motion": ".3654924486133915",
        "equinox": "J2000",
        "orbit_class": {
            "orbit_class_type": "APO",
            "orbit_class_description": "Near-Earth asteroid orbits which cross the Earth’s orbit similar to that of 1862 Apollo",
            "orbit_class_range": "a (semi-major axis) > 1.0 AU; q (perihelion) < 1.017 AU"
        }
    },
    "is_sentry_object": false
}